ONEWEB-0258             
1 48976U 21060K   26027.35797270 -.00000026  00000+0 -10113-3 0  9998
2 48976  87.9008 256.8211 0001511  87.2215 272.9089 13.16592869221064
ONEWEB-0259             
1 48977U 21060L   26027.12364751 -.00000035  00000+0 -12547-3 0  9991
2 48977  87.9017 256.8647 0001334  85.9410 274.1873 13.16593300221069
ONEWEB-0260             
1 48978U 21060M   26027.11494405  .00000018  00000+0  14474-4 0  9992
2 48978  87.9001 256.8751 0001685  68.6866 291.4445 13.16594629221041
ONEWEB-0261             
1 48979U 21060N   26027.16085815  .00000068  00000+0  14468-3 0  9996
2 48979  87.8997 256.8683 0001156  77.7544 282.3717 13.16594125221105
ONEWEB-0262             
1 48980U 21060P   26027.14106470  .00000069  00000+0  14626-3 0  9994
2 48980  87.9015 256.8497 0001316  96.1581 263.9700 13.16593266221063
ONEWEB-0263             
1 48981U 21060Q   26027.32471729  .00000107  00000+0  24643-3 0  9990
2 48981  87.9009 256.8251 0001075  82.0128 278.1125 13.16593537221057
ONEWEB-0264             
1 48982U 21060R   26027.13394030  .00000046  00000+0  87312-4 0  9994
2 48982  87.9012 256.8667 0001389  73.6652 286.4632 13.16593082221037
ONEWEB-0266             
1 48984U 21060T   26027.15531467  .00000114  00000+0  26354-3 0  9999
2 48984  87.9014 256.8515 0001540  89.6090 270.5217 13.16593217221027
